     3.02           N: GNSS NAV DATA    R: GLONASS          RINEX VERSION / TYPE
Spider v7.5.1.8670  SMO                 20210610 040351 UTC PGM / RUN BY / DATE
GLUT  2.9802322388D-08 0.000000000D+00      0    0          TIME SYSTEM CORR
    18    18  1929     7                                    LEAP SECONDS
                                                            END OF HEADER
R01 2021 06 09 16 45 00 8.061993867159D-05 0.000000000000D+00 3.186000000000D+05
    -2.456225195313D+04 7.702083587646D-01 1.862645149231D-09 0.000000000000D+00
     4.117003417969D+03-7.047748565674D-02 2.793967723846D-09 1.000000000000D+00
    -5.551630371094D+03-3.454151153564D+00-0.000000000000D+00 0.000000000000D+00
R02 2021 06 09 19 15 00 4.817796871066D-04 0.000000000000D+00 3.276000000000D+05
    -1.752391259766D+04 1.377378463745D+00 2.793967723846D-09 0.000000000000D+00
     1.078399218750D+04-1.542997360229D+00 9.313225746155D-10-4.000000000000D+00
    -1.499073974609D+04-2.716880798340D+00 0.000000000000D+00 0.000000000000D+00
R03 2021 06 09 21 15 00 3.741588443518D-05-0.000000000000D+00 3.348000000000D+05
    -1.112610546875D+04 4.502086639404D-01 1.862645149231D-09 0.000000000000D+00
     1.125628759766D+04-2.707516670227D+00-0.000000000000D+00 5.000000000000D+00
    -1.993983544922D+04-1.779837608337D+00 9.313225746155D-10 0.000000000000D+00
R04 2021 06 09 22 45 00 9.060371667147D-05 9.094947017729D-13 3.402000000000D+05
    -6.637161621094D+03-6.438074111938D-01 1.862645149231D-09 0.000000000000D+00
     1.317978710938D+04-2.780952453613D+00-9.313225746155D-10 6.000000000000D+00
    -2.077329736328D+04-1.556554794312D+00 9.313225746155D-10 0.000000000000D+00
R05 2021 06 09 23 45 00 7.328391075134D-05 0.000000000000D+00 3.438000000000D+05
     1.800932617188D+02-1.141242027283D+00 1.862645149231D-09 0.000000000000D+00
     1.774113232422D+04-2.239667892456D+00-1.862645149231D-09 1.000000000000D+00
    -1.830262646484D+04-2.181956291199D+00 9.313225746155D-10 0.000000000000D+00
R06 2021 06 10 00 15 00 1.994362100959D-04 0.000000000000D+00 3.456000000000D+05
     1.243656591797D+04-5.049266815186D-01 1.862645149231D-09 0.000000000000D+00
     2.108627246094D+04-8.468980789185D-01-2.793967723846D-09-4.000000000000D+00
    -7.137415527344D+03-3.385517120361D+00-0.000000000000D+00 0.000000000000D+00
R07 2021 06 10 00 45 00-4.236493259668D-05-0.000000000000D+00 3.474000000000D+05
     1.901331396484D+04 4.869880676270D-01 9.313225746155D-10 0.000000000000D+00
     1.652048144531D+04 2.678003311157D-01-1.862645149231D-09 5.000000000000D+00
     3.932745605469D+03-3.520522117615D+00-1.862645149231D-09 0.000000000000D+00
R08 2021 06 09 14 45 00-5.940347909927D-05-0.000000000000D+00 3.114000000000D+05
    -2.464471630859D+04-6.597824096680D-01 0.000000000000D+00 0.000000000000D+00
    -4.574671386719D+03-2.037048339844D-02 2.793967723846D-09 6.000000000000D+00
     4.740628417969D+03-3.495032310486D+00-9.313225746155D-10 0.000000000000D+00
R09 2021 06 10 02 45 00-2.832151949406D-06 1.818989403546D-12 3.546000000000D+05
    -1.420567529297D+04-6.351242065430D-01-3.725290298462D-09 0.000000000000D+00
     1.979958886719D+04 7.996501922607D-01 2.793967723846D-09-2.000000000000D+00
     7.429858398438D+03-3.359889984131D+00 2.793967723846D-09 0.000000000000D+00
R10 2021 06 10 02 45 00-7.164850831032D-05-0.000000000000D+00 3.546000000000D+05
    -1.823390625000D+03-1.863628387451D+00-3.725290298462D-09 0.000000000000D+00
     1.561127441406D+04 2.026481628418D+00 1.862645149231D-09-7.000000000000D+00
     2.010617919922D+04-1.735714912415D+00 0.000000000000D+00 0.000000000000D+00
R11 2020 11 18 15 15 00-4.512909799814D-05-9.094947017729D-13 3.132000000000D+05
    -2.265825341797D+04 1.347094535828D+00-1.862645149231D-09 0.000000000000D+00
     5.126939941406D+03-5.130758285522D-01 0.000000000000D+00 0.000000000000D+00
    -1.046525048828D+04-3.166407585144D+00 3.725290298462D-09 0.000000000000D+00
R12 2021 06 09 17 45 00 2.358201891184D-04 3.637978807092D-12 3.222000000000D+05
    -1.082842236328D+04-1.550865173340D-02 9.313225746155D-10 0.000000000000D+00
    -4.004025390625D+03-3.110491752625D+00-3.725290298462D-09-1.000000000000D+00
     2.277456201172D+04-5.534019470215D-01-9.313225746155D-10 0.000000000000D+00
R13 2021 06 09 19 45 00-5.602464079857D-05-0.000000000000D+00 3.294000000000D+05
    -1.457178515625D+04-1.462727546692D+00-9.313225746155D-10 0.000000000000D+00
    -5.858678710938D+03-2.333927154541D+00-4.656612873077D-09-2.000000000000D+00
     2.008435449219D+04-1.741184234619D+00 0.000000000000D+00 0.000000000000D+00
R14 2021 06 09 22 45 00 6.516277790070D-05 0.000000000000D+00 3.402000000000D+05
    -2.470729687500D+04-6.514568328857D-01-4.656612873077D-09 0.000000000000D+00
    -4.252513671875D+03-2.951049804688D-02-9.313225746155D-10-7.000000000000D+00
     4.665410644531D+03-3.488026618958D+00 2.793967723846D-09 0.000000000000D+00
R15 2021 06 10 01 15 00 1.033451408148D-04-0.000000000000D+00 3.492000000000D+05
    -2.325900488281D+04 1.229892730713D+00-1.862645149231D-09 0.000000000000D+00
     4.834899414063D+03-3.544797897339D-01 9.313225746155D-10 0.000000000000D+00
    -9.264485839844D+03-3.265568733215D+00 2.793967723846D-09 0.000000000000D+00
R16 2021 06 10 02 45 00-1.618079841137D-05 0.000000000000D+00 3.546000000000D+05
    -1.937587597656D+04 9.664916992188D-01-9.313225746155D-10 0.000000000000D+00
     1.386092578125D+04-8.295383453369D-01 1.862645149231D-09-1.000000000000D+00
    -9.309124511719D+03-3.242176055908D+00 2.793967723846D-09 0.000000000000D+00
R17 2021 06 10 00 15 00 4.313271492720D-04 2.728484105319D-12 3.456300000000D+05
    -8.248493164063D+03 1.202655792236D+00-3.725290298462D-09 0.000000000000D+00
    -7.324208984375D+03-2.914248466492D+00 9.313225746155D-10 4.000000000000D+00
     2.299786132813D+04-5.000286102295D-01-0.000000000000D+00 0.000000000000D+00
R18 2021 06 10 01 45 00 7.949210703373D-05 9.094947017729D-13 3.510000000000D+05
    -1.009837744141D+04-1.797866821289D-02-1.862645149231D-09 0.000000000000D+00
    -6.006129882813D+03-3.104160308838D+00 2.793967723846D-09-3.000000000000D+00
     2.265562841797D+04-8.262634277344D-01-9.313225746155D-10 0.000000000000D+00
R19 2021 06 10 02 45 00-1.471480354667D-04-9.094947017729D-13 3.546000000000D+05
    -1.051128125000D+04-7.311420440674D-01-1.862645149231D-09 0.000000000000D+00
     3.285405273438D+02-3.103925704956D+00 2.793967723846D-09 3.000000000000D+00
     2.323222021484D+04-2.869606018066D-01-0.000000000000D+00 0.000000000000D+00
R20 2021 06 10 02 45 00-5.060900002718D-05-0.000000000000D+00 3.546000000000D+05
    -2.934147460938D+03-3.139219284058D-01-3.725290298462D-09 0.000000000000D+00
     1.948817041016D+04-2.205075263977D+00 1.862645149231D-09 2.000000000000D+00
     1.616896679688D+04 2.604617118835D+00 9.313225746155D-10 0.000000000000D+00
R21 2021 06 10 02 45 00-2.153944224119D-04-2.728484105319D-12 3.546000000000D+05
     7.249922851563D+03 3.021087646484D-01-2.793967723846D-09 0.000000000000D+00
     2.438009472656D+04 2.194089889526D-01-0.000000000000D+00 4.000000000000D+00
    -2.106853515625D+03 3.587830543518D+00 9.313225746155D-10 0.000000000000D+00
R22 2021 06 09 12 45 00-1.168316230178D-04-9.094947017729D-13 3.042000000000D+05
    -1.221825292969D+04 8.173675537109D-01-4.656612873077D-09 0.000000000000D+00
     1.524952832031D+04-2.105441093445D+00 0.000000000000D+00-3.000000000000D+00
    -1.647397900391D+04-2.549405097961D+00-0.000000000000D+00 0.000000000000D+00
R23 2021 06 09 20 15 00-7.413327693939D-06-0.000000000000D+00 3.318900000000D+05
    -1.734548095703D+04 2.431833267212D+00-1.862645149231D-09 0.000000000000D+00
    -6.041875000000D+03-1.055860519409D-01-4.656612873077D-09 3.000000000000D+00
     1.768385986328D+04 2.347491264343D+00 0.000000000000D+00 0.000000000000D+00
R24 2021 06 09 22 15 00 4.590582102537D-05 1.818989403546D-12 3.384000000000D+05
    -1.045446972656D+04 2.525271415710D+00-4.656612873077D-09 0.000000000000D+00
    -5.501859863281D+03-1.790019989014D+00-9.313225746155D-10 2.000000000000D+00
     2.261823876953D+04 7.310276031494D-01-0.000000000000D+00 0.000000000000D+00
R20 2021 06 10 03 15 00-5.061086267233D-05-0.000000000000D+00 3.564000000000D+05
    -3.963042968750D+03-8.426113128662D-01-3.725290298462D-09 0.000000000000D+00
     1.508418798828D+04-2.640139579773D+00 3.725290298462D-09 2.000000000000D+00
     2.017049755859D+04 1.812703132629D+00 0.000000000000D+00 0.000000000000D+00
R10 2021 06 10 03 15 00-7.165409624577D-05-0.000000000000D+00 3.564000000000D+05
    -4.621332031250D+03-1.237260818481D+00-3.725290298462D-09 0.000000000000D+00
     1.914293798828D+04 1.850417137146D+00 2.793967723846D-09-7.000000000000D+00
     1.624636718750D+04-2.525050163269D+00 9.313225746155D-10 0.000000000000D+00
R16 2021 06 10 03 15 00-1.617986708879D-05 0.000000000000D+00 3.564000000000D+05
    -1.732747753906D+04 1.266210556030D+00-0.000000000000D+00 0.000000000000D+00
     1.171330175781D+04-1.557966232300D+00 9.313225746155D-10-1.000000000000D+00
    -1.471314941406D+04-2.723560333252D+00 2.793967723846D-09 0.000000000000D+00
R19 2021 06 10 03 15 00-1.471471041441D-04-9.094947017729D-13 3.564000000000D+05
    -1.220664013672D+04-1.128668785095D+00-0.000000000000D+00 0.000000000000D+00
    -5.006315429688D+03-2.776235580444D+00 2.793967723846D-09 3.000000000000D+00
     2.182375000000D+04-1.267843246460D+00-9.313225746155D-10 0.000000000000D+00
R09 2021 06 10 03 15 00-2.829357981682D-06 1.818989403546D-12 3.564000000000D+05
    -1.476273486328D+04-7.264137268066D-03-2.793967723846D-09 0.000000000000D+00
     2.072179882813D+04 1.921405792236D-01 2.793967723846D-09-2.000000000000D+00
     1.172101562500D+03-3.547851562500D+00 2.793967723846D-09 0.000000000000D+00
